STARLINK-37091          
1 68191U 26050AA  26092.69356206  .00266841  00000+0  13053-2 0  9994
2 68191  53.1580 161.3244 0001162  82.5479 277.5676 15.81019765  4271
STARLINK-37098          
1 68192U 26050AB  26092.69281247  .00273126  00000+0  13354-2 0  9995
2 68192  53.1581 161.3192 0000973  77.5727 282.5405 15.81012987  4279
STARLINK-37090          
1 68193U 26050AC  26092.69130950  .00255038  00000+0  12500-2 0  9994
2 68193  53.1579 161.3079 0000858  68.5826 291.5289 15.81008710  4272
STARLINK-37093          
1 68194U 26050AD  26092.69506303  .00298839  00000+0  14559-2 0  9996
2 68194  53.1581 161.3341 0001116  87.7325 272.3826 15.81020339  4278
STARLINK-37058          
1 68195U 26050AE  26092.69205722  .00328218  00000+0  15912-2 0  9997
2 68195  53.1580 161.3136 0001103  89.5389 270.5760 15.81048030  2718
YAOGAN-50 02            
1 68196U 26051A   26092.83918434  .00000267  00000+0  72712-4 0  9990
2 68196 141.9862 323.7159 0000728 273.9342  86.1294 13.83260391  2558
CZ-6A R/B               
1 68197U 26051B   26092.64509098  .00001203  00000+0  15884-3 0  9999
2 68197 142.0310 332.7470 0187181 223.6066 134.9730 14.56380003  2651
2026-052A               
1 68198U 26052A   26092.84600267  .00011297  00000+0  69683-3 0  9993
2 68198  97.5360 168.8115 0013493 200.3948 159.6744 15.10017479  2676
YUXING-3 06             
1 68199U 26052B   26092.71165672  .00008969  00000+0  55221-3 0  9991
2 68199  97.5361 168.6830 0012477 202.1721 157.8970 15.10161333  2658
2026-052C               
1 68200U 26052C   26092.84267412  .00006583  00000+0  40525-3 0  9994
2 68200  97.5358 168.8167 0012183 204.4688 155.5964 15.10276793  2669
2026-052D               
1 68201U 26052D   26092.84052480  .00010748  00000+0  65467-3 0  9992
2 68201  97.5360 168.8164 0011443 201.1365 158.9393 15.10513866  2673
2026-052E               
1 68202U 26052E   26092.84050609  .00010575  00000+0  64427-3 0  9997
2 68202  97.5364 168.8177 0011206 205.3203 154.7479 15.10512727  2670
